{"type":"FeatureCollection","features":[{"type":"Feature","properties":{"Site_ID":"NUW-007","Province":"Bagmati","District":"Nuwakot","District_P":"NP0328","Municipali":"Bidur","Ward_numbe":9,"Site_name":"Shree Sulakshana Secondary School","Road_acces":"Yes","Access_con":"None","Travel_tim":30,"Site_type":"Collective centre","Type_of_st":"School","Total_hous":46,"Total_indi":88,"Site_capac":200,"Number_o_2":6,"Number_o_3":3,"Number_o_4":3,"Latrines_s":"Yes","Latrines_l":"Yes","Bathing_fa":"No","Drainage_a":"Yes","Main_drink":"Tap water and bottled water","Main_potab":"Tap water and bottled water","Is_there_1":"No","Days_of_wa":2,"Water_stor":"Partially","Soap_and_h":"Yes","Solid_wast":"No","Priority_W":"Inadequate water filtration and waste management; waste is disposed of in the river","Top_three_":"Education Cash/Livelihoods WASH","Immediate_":"Safe drinking water, water filtration,  propoer waste management and basic cooking ingredients","Recommende":"Water filtration, cooking ingredients and waste management"},"geometry":{"type":"Point","coordinates":[85.15880170000008,27.947726200000034]}},{"type":"Feature","properties":{"Site_ID":"NUW-001","Province":"Bagmati","District":"Nuwakot","District_P":"NP0328","Municipali":"Kispang","Ward_numbe":5,"Site_name":"Karki Manakamana Aadharbhoot School","Road_acces":"Yes","Access_con":"Unpaved hilly road","Travel_tim":210,"Site_type":"Collective centre","Type_of_st":"School","Total_hous":3,"Total_indi":11,"Site_capac":20,"Number_o_2":2,"Number_o_3":1,"Number_o_4":1,"Latrines_s":"Yes","Latrines_l":"Yes","Bathing_fa":"No","Drainage_a":"Yes","Main_drink":"Tap water sourced from seasonal spring","Main_potab":"Tap water/piped","Is_there_1":"No","Days_of_wa":1,"Water_stor":"No","Soap_and_h":"Partially","Solid_wast":"Yes","Priority_W":"Hygiene items insufficient\nNot enough water storage","Top_three_":"Shelter/Non-Food Items WASH Education","Immediate_":"Hygiene item resupply,\nMental health referral follow-up","Recommende":"Resupply hygiene items"},"geometry":{"type":"Point","coordinates":[85.17430750000005,27.987960800000053]}},{"type":"Feature","properties":{"Site_ID":"NUW-005","Province":"Bagmati","District":"Nuwakot","District_P":"NP0328","Municipali":"Bidur","Ward_numbe":7,"Site_name":"Shree Jana Jagaran Mahila Samuha, Tupche","Road_acces":"Yes","Access_con":"Largely unpaved road","Travel_tim":240,"Site_type":"Collective centre","Type_of_st":"Other","Total_hous":20,"Total_indi":74,"Site_capac":80,"Number_o_2":3,"Number_o_3":1,"Number_o_4":2,"Latrines_s":"Yes","Latrines_l":"Yes","Bathing_fa":"Yes","Drainage_a":"Yes","Main_drink":"Tap water sourced from seasonal spring","Main_potab":"Mineral water","Is_there_1":"Yes","Days_of_wa":1,"Water_stor":"No","Soap_and_h":"Yes","Solid_wast":"No","Priority_W":"Poor water quality; turbid water and no filtration, \nInsufficient water storage,\nNo functional toilets despite 6 toilets, \nNo private space for women amd girls,\nMissing sanitation supplies; no toilet cleaning brush, no disinfectant","Top_three_":"Education Shelter/Non-Food Items WASH","Immediate_":"Water filter delivery, \nToilet repair, \nNight lighting on access path,\nDiarrhea/fever case monitoring","Recommende":"Shelter is inadequate; immediate Shelter expansion or alternative arrangement required, \nArrange school for children as soon as possible"},"geometry":{"type":"Point","coordinates":[85.17173690000004,27.96859530000006]}},{"type":"Feature","properties":{"Site_ID":"NUW-008","Province":"Bagmati","District":"Nuwakot","District_P":"NP0328","Municipali":"Bidur","Ward_numbe":3,"Site_name":"Rana Buwaneshor Madhyamik  Vidhyalaya","Road_acces":"Yes","Access_con":"Road damage in few area","Travel_tim":480,"Site_type":"Collective centre","Type_of_st":"School","Total_hous":2,"Total_indi":10,"Site_capac":400,"Number_o_2":4,"Number_o_3":2,"Number_o_4":2,"Latrines_s":"Yes","Latrines_l":"Partially","Bathing_fa":"No","Drainage_a":"Yes","Main_drink":"Deep boaring","Main_potab":"River water","Is_there_1":"Boaring required electricity ,so if electricity is available no issue","Days_of_wa":7,"Water_stor":"Yes","Soap_and_h":"Partially","Solid_wast":"Partially","Priority_W":"Hygiene Kits","Top_three_":"Shelter/Non-Food Items Cash/Livelihoods Health","Immediate_":"Bridge","Recommende":"Bridge-For School Operation- Rent accommodation"},"geometry":{"type":"Point","coordinates":[85.10777280000008,27.862473400000056]}},{"type":"Feature","properties":{"Site_ID":"NUW-003","Province":"Bagmati","District":"Nuwakot","District_P":"NP0328","Municipali":"Bidur","Ward_numbe":9,"Site_name":"Shree Bhairum Higher Secondary School","Road_acces":"Yes","Access_con":"Road and bridges damaged-  took almost 8hrs to reach the location via road","Travel_tim":480,"Site_type":"Collective centre","Type_of_st":"School","Total_hous":85,"Total_indi":250,"Site_capac":200,"Number_o_2":4,"Number_o_3":2,"Number_o_4":2,"Latrines_s":"Yes","Latrines_l":"Yes","Bathing_fa":"No","Drainage_a":"Partially","Main_drink":"Relying on jar water and collected water - some organization provided water purifiers , access to safe drinking water remains a concern","Main_potab":"Collected water, mineral waters / jar donated by organizations","Is_there_1":"Yes","Days_of_wa":2,"Water_stor":"No","Soap_and_h":"Partially","Solid_wast":"No","Priority_W":"Less drinking water supplies\n No soaps handwash facilities in bathroom  \n","Top_three_":"Cash/Livelihoods Education Shelter/Non-Food Items","Immediate_":"access to chronic medication like TB medicine not available","Recommende":"Relocation planning to ensure school resumes"},"geometry":{"type":"Point","coordinates":[85.13950030000007,27.92328930000008]}},{"type":"Feature","properties":{"Site_ID":"Nuwa-002","Province":"Bagmati","District":"Nuwakot","District_P":"NP0328","Municipali":"Kispang","Ward_numbe":5,"Site_name":"Tribhuwan Madyamik Bidhyalaya","Road_acces":"Yes","Access_con":"Road damage, Steep","Travel_tim":420,"Site_type":"Collective centre","Type_of_st":"School","Total_hous":7,"Total_indi":45,"Site_capac":200,"Number_o_2":3,"Number_o_3":1,"Number_o_4":2,"Latrines_s":"Partially","Latrines_l":"No","Bathing_fa":"No","Drainage_a":"Partially","Main_drink":"Tap water sourced from seasonal spring","Main_potab":"No","Is_there_1":"No","Days_of_wa":0,"Water_stor":"Partially","Soap_and_h":"Partially","Solid_wast":"Unknown","Priority_W":"Hygiene Kits, Sanitation, Bathroom, Awareness about Hygiene","Top_three_":"Shelter/Non-Food Items Cash/Livelihoods Education","Immediate_":"Relocation","Recommende":"Light,  communications, Health, Security"},"geometry":{"type":"Point","coordinates":[85.17434,28.02761]}},{"type":"Feature","properties":{"Site_ID":"NUW-009","Province":"Bagmati","District":"Nuwakot","District_P":"NP0328","Municipali":"Bidur","Ward_numbe":3,"Site_name":"Chandi School","Road_acces":"Partially","Access_con":"Road damage","Travel_tim":360,"Site_type":"Collective centre","Type_of_st":"School","Total_hous":27,"Total_indi":100,"Site_capac":50,"Number_o_2":2,"Number_o_3":1,"Number_o_4":1,"Latrines_s":"Partially","Latrines_l":"Partially","Bathing_fa":"No","Drainage_a":"No","Main_drink":"Tap water sourced from seasonal spring - significant access challenge as it takes one hour to reach the source","Main_potab":"Spring water","Is_there_1":"No","Days_of_wa":0,"Water_stor":"No","Soap_and_h":"No","Solid_wast":"No","Priority_W":"Solid waste management and Drainage , Drinking water and hygiene kit","Top_three_":"Shelter/Non-Food Items WASH Health","Immediate_":"Cooking gas , Induction and lights/ solar","Recommende":"Shelter and security"},"geometry":{"type":"Point","coordinates":[85.08028,27.85782]}},{"type":"Feature","properties":{"Site_ID":"NUW-004","Province":"Bagmati","District":"Nuwakot","District_P":"NP0328","Municipali":"Bidur","Ward_numbe":9,"Site_name":"Tripoli Jolene Church Bhawan","Road_acces":"Yes","Access_con":"No","Travel_tim":480,"Site_type":"Host community concentration","Type_of_st":"Other","Total_hous":17,"Total_indi":59,"Site_capac":300,"Number_o_2":45,"Number_o_3":20,"Number_o_4":25,"Latrines_s":"Yes","Latrines_l":"Yes","Bathing_fa":"Partially","Drainage_a":"Yes","Main_drink":"Tap, Tanker, Water Jar","Main_potab":"Water Jar, Tanker","Is_there_1":"Yes","Days_of_wa":1,"Water_stor":"Partially","Soap_and_h":"Yes","Solid_wast":"Partially","Priority_W":"Solid Waste Management,  Water","Top_three_":"Cash/Livelihoods Shelter/Non-Food Items Education","Immediate_":"Shelter","Recommende":"Induction cooker and stove"},"geometry":{"type":"Point","coordinates":[85.14554,27.92578]}},{"type":"Feature","properties":{"Site_ID":"NUW- 006","Province":"Bagmati","District":"Nuwakot","District_P":"NP0328","Municipali":"Bidur","Ward_numbe":9,"Site_name":"Trishuli adharbhhut school","Road_acces":"Yes","Access_con":"Road damage","Travel_tim":480,"Site_type":"Collective centre","Type_of_st":"School","Total_hous":47,"Total_indi":179,"Site_capac":50,"Number_o_2":6,"Number_o_3":3,"Number_o_4":3,"Latrines_s":"Yes","Latrines_l":"Yes","Bathing_fa":"No","Drainage_a":"Yes","Main_drink":"Tap water sourced from seasonal spring","Main_potab":"Natural water","Is_there_1":"Enough","Days_of_wa":30,"Water_stor":"Yes","Soap_and_h":"Yes","Solid_wast":"No","Priority_W":"No facility available for buying and washing clothes","Top_three_":"Cash/Livelihoods Education Shelter/Non-Food Items","Immediate_":"No","Recommende":"Relocate to safe place"},"geometry":{"type":"Point","coordinates":[85.15048,27.94477]}},{"type":"Feature","properties":{"Site_ID":"Bidur 4 NUW-001","Province":"Bagmati","District":"Nuwakot","District_P":"NP0328","Municipali":"Bidur","Ward_numbe":4,"Site_name":"Sukumbasi Tole","Road_acces":"Yes","Access_con":"None","Travel_tim":3,"Site_type":"Collective centre","Type_of_st":"School","Total_hous":17,"Total_indi":51,"Site_capac":100,"Number_o_2":4,"Number_o_3":2,"Number_o_4":2,"Latrines_s":"Yes","Latrines_l":"Yes","Bathing_fa":"No","Drainage_a":"Yes","Main_drink":"Mineral water","Main_potab":"Tanker collected from spring water from KUKL","Is_there_1":"Not yet","Days_of_wa":10,"Water_stor":"Yes","Soap_and_h":"Partially","Solid_wast":"Partially","Priority_W":"Bathing area and equipment, self dignity concern","Top_three_":"Health WASH Camp Coordination and Camp Management","Immediate_":"No any","Recommende":"No any"},"geometry":{"type":"Point","coordinates":[85.14371250000005,27.899313500000062]}},{"type":"Feature","properties":{"Site_ID":"Nuw-001","Province":"Bagmati","District":"Nuwakot","District_P":"NP0328","Municipali":"Bidur","Ward_numbe":6,"Site_name":"Dugdha Chisyan Kendra","Road_acces":"Yes","Access_con":"None,  landslide risk","Travel_tim":25,"Site_type":"Other","Type_of_st":"Other","Total_hous":2,"Total_indi":10,"Site_capac":10,"Number_o_2":1,"Number_o_3":0,"Number_o_4":0,"Latrines_s":"No","Latrines_l":"Yes","Bathing_fa":"No","Drainage_a":"No","Main_drink":"Mineral water","Main_potab":"Local tank water and KUKL water supply","Is_there_1":"Yes","Days_of_wa":7,"Water_stor":"No","Soap_and_h":"Partially","Solid_wast":"Partially","Priority_W":"Drinking Water, Toilet","Top_three_":"Shelter/Non-Food Items Food WASH","Immediate_":"No","Recommende":"NA/ In long run Land to provide"},"geometry":{"type":"Point","coordinates":[85.14315510000006,27.891528700000038]}},{"type":"Feature","properties":{"Site_ID":"Belkotgadhi 7-NUW001","Province":"Bagmati","District":"Nuwakot","District_P":"NP0328","Municipali":"Belkotgadhi","Ward_numbe":7,"Site_name":"Belkotgadhi Mahadev School","Road_acces":"No","Access_con":"Road damage,landslide risk","Travel_tim":210,"Site_type":"Collective centre","Type_of_st":"School","Total_hous":69,"Total_indi":150,"Site_capac":300,"Number_o_2":16,"Number_o_3":6,"Number_o_4":10,"Latrines_s":"Yes","Latrines_l":"Yes","Bathing_fa":"No","Drainage_a":"No","Main_drink":"Tap water sourced from seasonal spring","Main_potab":"Spring water","Is_there_1":"No","Days_of_wa":60,"Water_stor":"Yes","Soap_and_h":"Partially","Solid_wast":"No","Priority_W":"No any pads hygiene kits, Diapers, soap, shampoo, tooth brush and kit","Top_three_":"Cash/Livelihoods WASH Education","Immediate_":"None","Recommende":"None"},"geometry":{"type":"Point","coordinates":[85.060293,27.852243900000076]}},{"type":"Feature","properties":{"Site_ID":"NUW-001","Province":"Bagmati","District":"Nuwakot","District_P":"NP0328","Municipali":"Belkotgadhi","Ward_numbe":7,"Site_name":"Nepal Westlian Church","Road_acces":"No","Access_con":"No road","Travel_tim":200,"Site_type":"Other","Type_of_st":"Other","Total_hous":9,"Total_indi":33,"Site_capac":10,"Number_o_2":1,"Number_o_3":0,"Number_o_4":0,"Latrines_s":"No","Latrines_l":"Yes","Bathing_fa":"No","Drainage_a":"No","Main_drink":"Tap water sourced from seasonal spring and filter","Main_potab":"Spring water","Is_there_1":"No","Days_of_wa":0,"Water_stor":"No","Soap_and_h":"Partially","Solid_wast":"No","Priority_W":"WASH and waste management","Top_three_":"WASH Cash/Livelihoods Health","Immediate_":"No","Recommende":"Relocation"},"geometry":{"type":"Point","coordinates":[85.04198430000008,27.84982610000003]}},{"type":"Feature","properties":{"Site_ID":"NUW-001","Province":"Bagmati","District":"Nuwakot","District_P":"NP0328","Municipali":"Belkotgadhi","Ward_numbe":7,"Site_name":"Mahadev Campus","Road_acces":"No","Access_con":"Road damage","Travel_tim":180,"Site_type":"Other","Type_of_st":"Other","Total_hous":6,"Total_indi":27,"Site_capac":20,"Number_o_2":1,"Number_o_3":0,"Number_o_4":0,"Latrines_s":"No","Latrines_l":"No","Bathing_fa":"No","Drainage_a":"No","Main_drink":"Tap water sourced from seasonal spring","Main_potab":"Tap water sources","Is_there_1":"Yes","Days_of_wa":1,"Water_stor":"No","Soap_and_h":"Partially","Solid_wast":"No","Priority_W":"Hygiene kits, kitchen sets, drinking water, dignity kits","Top_three_":"Food WASH Shelter/Non-Food Items","Immediate_":"None","Recommende":"Temporary Shelter are required and food items and non food items required"},"geometry":{"type":"Point","coordinates":[85.06486770000004,27.851959600000043]}},{"type":"Feature","properties":{"Site_ID":"KTM-001","Province":"Bagmati","District":"Kathmandu","District_P":"NP0327","Municipali":"Kathmandu","Ward_numbe":2,"Site_name":"Mustang Monastery, Swoyambhu","Road_acces":"Yes","Access_con":"Air access only","Travel_tim":320,"Site_type":"Other","Type_of_st":"Monastery","Total_hous":70,"Total_indi":260,"Site_capac":100,"Number_o_2":4,"Number_o_3":2,"Number_o_4":2,"Latrines_s":"Yes","Latrines_l":"Yes","Bathing_fa":"No","Drainage_a":"Yes","Main_drink":"Mineral water","Main_potab":"Water tank","Is_there_1":"Yes","Days_of_wa":1,"Water_stor":"Partially","Soap_and_h":"Yes","Solid_wast":"Yes","Priority_W":"None","Top_three_":"WASH Health Cash/Livelihoods","Immediate_":"None","Recommende":"Identification of HHs, disaggregated data classification"},"geometry":{"type":"Point","coordinates":[85.28632990000006,27.717788600000063]}},{"type":"Feature","properties":{"Site_ID":"KTM-RASUW001","Province":"Bagmati","District":"Kathmandu","District_P":"NP0327","Municipali":"Kathmandu","Ward_numbe":5,"Site_name":"Gosok Phuntsok Choeling Monastery, Nagarjun","Road_acces":"Yes","Access_con":"Air access only","Travel_tim":0,"Site_type":"Other","Type_of_st":"Monastery","Total_hous":175,"Total_indi":520,"Site_capac":400,"Number_o_2":8,"Number_o_3":8,"Number_o_4":8,"Latrines_s":"Yes","Latrines_l":"Yes","Bathing_fa":"Yes","Drainage_a":"Yes","Main_drink":"Mineral water","Main_potab":"Tanker supply","Is_there_1":"No","Days_of_wa":30,"Water_stor":"Yes","Soap_and_h":"Yes","Solid_wast":"Yes","Priority_W":"Not any","Top_three_":"Cash/Livelihoods Education Camp Coordination and Camp Management","Immediate_":"No","Recommende":"No"},"geometry":{"type":"Point","coordinates":[85.282926,27.726072900000077]}},{"type":"Feature","properties":{"Site_ID":null,"Province":"Bagmati","District":"Nuwakot","District_P":"NP0328","Municipali":"Bidur","Ward_numbe":2,"Site_name":"Kriyaputri Bhawan","Road_acces":"Yes","Access_con":"None","Travel_tim":10,"Site_type":"Collective centre","Type_of_st":"Other","Total_hous":33,"Total_indi":200,"Site_capac":230,"Number_o_2":7,"Number_o_3":2,"Number_o_4":5,"Latrines_s":"Yes","Latrines_l":"Partially","Bathing_fa":"No","Drainage_a":"No","Main_drink":"Bottled water","Main_potab":"Water trucking","Is_there_1":"No","Days_of_wa":0,"Water_stor":"No","Soap_and_h":"Yes","Solid_wast":"Yes","Priority_W":"Water tanks, septic tank capacity","Top_three_":"Protection WASH CCCM","Immediate_":"None","Recommende":"Identification of an alternative more suitable location"},"geometry":{"type":"Point","coordinates":[85.14581560000005,27.911100100000056]}},{"type":"Feature","properties":{"Site_ID":null,"Province":"Bagmati","District":"Nuwakot","District_P":"NP0328","Municipali":"Bidur","Ward_numbe":4,"Site_name":"Tamamg plaza","Road_acces":"Yes","Access_con":"None","Travel_tim":5,"Site_type":"Collective centre","Type_of_st":"Other","Total_hous":70,"Total_indi":136,"Site_capac":100,"Number_o_2":10,"Number_o_3":5,"Number_o_4":5,"Latrines_s":"Yes","Latrines_l":"Yes","Bathing_fa":"No","Drainage_a":"Yes","Main_drink":"Bottled water","Main_potab":"Water trucking","Is_there_1":"No","Days_of_wa":0,"Water_stor":"Yes","Soap_and_h":"Yes","Solid_wast":"Yes","Priority_W":"Drinking water","Top_three_":"Protection WASH Food","Immediate_":"Drinking water stock is low","Recommende":"Provide storage for food gas for cooking more stock for drinking water, fans and Child friendly spaces"},"geometry":{"type":"Point","coordinates":[85.14475630000004,27.903784100000053]}},{"type":"Feature","properties":{"Site_ID":null,"Province":"Bagmati","District":"Nuwakot","District_P":"NP0328","Municipali":"Bidur","Ward_numbe":2,"Site_name":"Battar covered holding center","Road_acces":"Yes","Access_con":"None","Travel_tim":10,"Site_type":"Collective centre","Type_of_st":"Other","Total_hous":60,"Total_indi":238,"Site_capac":200,"Number_o_2":2,"Number_o_3":0,"Number_o_4":0,"Latrines_s":"No","Latrines_l":"Yes","Bathing_fa":"No","Drainage_a":"Unknown","Main_drink":"Bottled water","Main_potab":"Water trucking","Is_there_1":"No","Days_of_wa":0,"Water_stor":"No","Soap_and_h":"Yes","Solid_wast":"Yes","Priority_W":"Latrines, bathing facilities, septic tank","Top_three_":"WASH Shelter/NFI CCCM","Immediate_":"None","Recommende":"Provide fans and wash support"},"geometry":{"type":"Point","coordinates":[85.149255,27.899480100000062]}},{"type":"Feature","properties":{"Site_ID":null,"Province":"Bagmati","District":"Nuwakot","District_P":"NP0328","Municipali":"Bidur","Ward_numbe":5,"Site_name":"Chandra Jyoti school","Road_acces":"Yes","Access_con":"None","Travel_tim":10,"Site_type":"Collective centre","Type_of_st":"School","Total_hous":50,"Total_indi":200,"Site_capac":180,"Number_o_2":4,"Number_o_3":2,"Number_o_4":2,"Latrines_s":"Yes","Latrines_l":"Yes","Bathing_fa":"No","Drainage_a":"Yes","Main_drink":"Bottled water","Main_potab":"Water trucking","Is_there_1":"No","Days_of_wa":0,"Water_stor":"Yes","Soap_and_h":"Yes","Solid_wast":"Yes","Priority_W":"Latrines and bathing facilities","Top_three_":"WASH Food Cash/Livelihoods","Immediate_":"None","Recommende":"Wash support and gas cylinders"},"geometry":{"type":"Point","coordinates":[85.12128020000006,27.868433700000026]}},{"type":"Feature","properties":{"Site_ID":null,"Province":"Bagmati","District":"Nuwakot","District_P":"NP0328","Municipali":"Bidur","Ward_numbe":2,"Site_name":"Community multipurpose center","Road_acces":"Yes","Access_con":"None","Travel_tim":20,"Site_type":"Collective centre","Type_of_st":"Other","Total_hous":33,"Total_indi":91,"Site_capac":100,"Number_o_2":4,"Number_o_3":0,"Number_o_4":0,"Latrines_s":"No","Latrines_l":"Yes","Bathing_fa":"No","Drainage_a":"Yes","Main_drink":"Bottled water","Main_potab":"Water trucking","Is_there_1":"No","Days_of_wa":0,"Water_stor":"Yes","Soap_and_h":"Yes","Solid_wast":"Yes","Priority_W":"Separation of latrines, site cleaning and hygiene","Top_three_":"WASH CCCM Shelter/NFI","Immediate_":"None","Recommende":"Separation of latrines, MHPSS support"},"geometry":{"type":"Point","coordinates":[85.16598480000005,27.917212800000073]}},{"type":"Feature","properties":{"Site_ID":null,"Province":"Bagmati","District":"Nuwakot","District_P":"NP0328","Municipali":"Bidur","Ward_numbe":5,"Site_name":"Auyurved and Alternative Hospital","Road_acces":"Yes","Access_con":"None","Travel_tim":10,"Site_type":"Collective centre","Type_of_st":"Health facility","Total_hous":30,"Total_indi":110,"Site_capac":150,"Number_o_2":15,"Number_o_3":9,"Number_o_4":6,"Latrines_s":"Yes","Latrines_l":"Yes","Bathing_fa":"No","Drainage_a":"Yes","Main_drink":"Bottled water","Main_potab":"Water trucking","Is_there_1":"No","Days_of_wa":0,"Water_stor":"No","Soap_and_h":"Yes","Solid_wast":"Yes","Priority_W":"Water tanks, septic tank capacity","Top_three_":"CCCM Protection WASH","Immediate_":"None","Recommende":"Water tanks and CFS"},"geometry":{"type":"Point","coordinates":[85.11895210000006,27.866714400000035]}},{"type":"Feature","properties":{"Site_ID":"RAS-004","Province":"Bagmati","District":"Rasuwa","District_P":"NP0329","Municipali":"Uttargaya","Ward_numbe":5,"Site_name":"Bhimsensthan primary school","Road_acces":"Yes","Access_con":"None","Travel_tim":120,"Site_type":"Collective centre","Type_of_st":"School","Total_hous":20,"Total_indi":42,"Site_capac":35,"Number_o_2":1,"Number_o_3":0,"Number_o_4":0,"Latrines_s":"No","Latrines_l":"Yes","Bathing_fa":"No","Drainage_a":"No","Main_drink":"Tap water sourced from seasonal spring","Main_potab":"Tap water","Is_there_1":"No","Days_of_wa":30,"Water_stor":"Yes","Soap_and_h":"Yes","Solid_wast":"Partially","Priority_W":"Septic tank capacity, latrines, sex separation of latrines and bathing facilities","Top_three_":"WASH Food Protection","Immediate_":"Child friendly spaces","Recommende":"WASH support, MHPSS and partitions"},"geometry":{"type":"Point","coordinates":[85.19338740000006,27.984892700000046]}},{"type":"Feature","properties":{"Site_ID":"RAS-001","Province":"Bagmati","District":"Rasuwa","District_P":"NP0329","Municipali":"Uttargaya","Ward_numbe":5,"Site_name":"Nilkhhanta school hostel","Road_acces":"Yes","Access_con":"No","Travel_tim":120,"Site_type":"Collective centre","Type_of_st":"Other","Total_hous":60,"Total_indi":60,"Site_capac":100,"Number_o_2":4,"Number_o_3":2,"Number_o_4":2,"Latrines_s":"Yes","Latrines_l":"Yes","Bathing_fa":"Yes","Drainage_a":"Yes","Main_drink":"Tap water sourced from seasonal spring","Main_potab":"Tap water","Is_there_1":"No","Days_of_wa":0,"Water_stor":"Yes","Soap_and_h":"Yes","Solid_wast":"No","Priority_W":"Solid waste management solution","Top_three_":"Camp Coordination and Camp Management Education Food","Immediate_":"None","Recommende":"Visibility for available services and referral pathways"},"geometry":{"type":"Point","coordinates":[85.18374280000006,27.98047330000003]}},{"type":"Feature","properties":{"Site_ID":"RAS-002","Province":"Bagmati","District":"Rasuwa","District_P":"NP0329","Municipali":"Uttargaya","Ward_numbe":5,"Site_name":"Shivalaya school","Road_acces":"Yes","Access_con":"None","Travel_tim":120,"Site_type":"Collective centre","Type_of_st":"School","Total_hous":27,"Total_indi":125,"Site_capac":50,"Number_o_2":3,"Number_o_3":1,"Number_o_4":1,"Latrines_s":"Partially","Latrines_l":"Yes","Bathing_fa":"No","Drainage_a":"No","Main_drink":"Tap water sourced from seasonal spring","Main_potab":"Tap water","Is_there_1":"No","Days_of_wa":0,"Water_stor":"Yes","Soap_and_h":"Yes","Solid_wast":"No","Priority_W":"Bathing facilities, Latrines,","Top_three_":"Protection Shelter/Non-Food Items WASH","Immediate_":"None","Recommende":"Partitions between households and bathing facilities"},"geometry":{"type":"Point","coordinates":[85.19161240000005,27.983663300000046]}},{"type":"Feature","properties":{"Site_ID":"RAS-001","Province":"Bagmati","District":"Rasuwa","District_P":"NP0329","Municipali":"Kalika","Ward_numbe":2,"Site_name":"Shree Kalika Himalaya Campus","Road_acces":"Yes","Access_con":"No","Travel_tim":90,"Site_type":"Collective centre","Type_of_st":"School","Total_hous":5,"Total_indi":6,"Site_capac":250,"Number_o_2":6,"Number_o_3":3,"Number_o_4":3,"Latrines_s":"Yes","Latrines_l":"No","Bathing_fa":"Yes","Drainage_a":"Yes","Main_drink":"Tap water sourced from seasonal spring","Main_potab":"Tap water","Is_there_1":"No","Days_of_wa":100,"Water_stor":"Yes","Soap_and_h":"Yes","Solid_wast":"Yes","Priority_W":"Water filter","Top_three_":"Shelter/Non-Food Items","Immediate_":"None","Recommende":"Transfer plan to old age home"},"geometry":{"type":"Point","coordinates":[85.18378060000003,27.980398300000047]}},{"type":"Feature","properties":{"Site_ID":"RUS-002","Province":"Bagmati","District":"Rasuwa","District_P":"NP0329","Municipali":"Uttargaya","Ward_numbe":3,"Site_name":"Ganesh Primary School","Road_acces":"Unknown","Access_con":"Unknown","Travel_tim":0,"Site_type":"Collective centre","Type_of_st":"School","Total_hous":10,"Total_indi":38,"Site_capac":0,"Number_o_2":0,"Number_o_3":0,"Number_o_4":0,"Latrines_s":"Unknown","Latrines_l":"Unknown","Bathing_fa":"Unknown","Drainage_a":"Unknown","Main_drink":"Unknown","Main_potab":"Unknown","Is_there_1":"Unknown","Days_of_wa":0,"Water_stor":"Unknown","Soap_and_h":"Unknown","Solid_wast":"Unknown","Priority_W":"Unknown","Top_three_":"Food Health Shelter/Non-Food Items","Immediate_":"Unknown","Recommende":"Unknown"},"geometry":{"type":"Point","coordinates":[85.195353,28.062572]}},{"type":"Feature","properties":{"Site_ID":"RUS-001","Province":"Bagmati","District":"Rasuwa","District_P":"NP0329","Municipali":"Uttargaya","Ward_numbe":2,"Site_name":"Simle Basic School","Road_acces":"No","Access_con":"Telephone survey","Travel_tim":0,"Site_type":"Collective centre","Type_of_st":"School","Total_hous":20,"Total_indi":121,"Site_capac":0,"Number_o_2":0,"Number_o_3":0,"Number_o_4":0,"Latrines_s":"Unknown","Latrines_l":"Unknown","Bathing_fa":"Unknown","Drainage_a":"Unknown","Main_drink":"Unknown","Main_potab":"Unknown","Is_there_1":"Unknown","Days_of_wa":0,"Water_stor":"Unknown","Soap_and_h":"Unknown","Solid_wast":"Unknown","Priority_W":"Unknown","Top_three_":"Shelter/Non-Food Items Food Health","Immediate_":"Unknown","Recommende":"Unknown"},"geometry":{"type":"Point","coordinates":[85.189493,28.035578]}},{"type":"Feature","properties":{"Site_ID":"Nuwakot Bidur Ward 1","Province":"Bagmati","District":"Nuwakot","District_P":"NP0328","Municipali":"Bidur","Ward_numbe":1,"Site_name":"Indrayani Aadharbhoot Vidyalaya Pandey Gaun","Road_acces":"Yes","Access_con":"Road Damange","Travel_tim":15,"Site_type":"Collective centre","Type_of_st":"School","Total_hous":13,"Total_indi":58,"Site_capac":70,"Number_o_2":2,"Number_o_3":1,"Number_o_4":1,"Latrines_s":"Yes","Latrines_l":"Yes","Bathing_fa":"No","Drainage_a":"Yes","Main_drink":"Tap water sourced from seasonal spring","Main_potab":"Spring water","Is_there_1":"No","Days_of_wa":100,"Water_stor":"Yes","Soap_and_h":"Yes","Solid_wast":"No","Priority_W":"Bathroom facilities, water storage  as water tank is very small, no proper water taps. Toilets maintainace are required. Toilets are not enough.","Top_three_":"Shelter/Non-Food Items WASH Cash/Livelihoods","Immediate_":"Toilets and bath room","Recommende":"Water drainage management, bath room, PSS,GBV related activities"},"geometry":{"type":"Point","coordinates":[85.15514190000005,27.92344380000003]}},{"type":"Feature","properties":{"Site_ID":"Bidur 10, Nuwakot","Province":"Bagmati","District":"Nuwakot","District_P":"NP0328","Municipali":"Bidur","Ward_numbe":10,"Site_name":"Gerkhutar holding Center","Road_acces":"Yes","Access_con":"Landslide risk, river crossing, road damage","Travel_tim":30,"Site_type":"Collective centre","Type_of_st":"School","Total_hous":41,"Total_indi":149,"Site_capac":150,"Number_o_2":4,"Number_o_3":2,"Number_o_4":2,"Latrines_s":"Yes","Latrines_l":"Yes","Bathing_fa":"Partially","Drainage_a":"Yes","Main_drink":"Tap water sourced from seasonal spring","Main_potab":"Spring water","Is_there_1":"No","Days_of_wa":50,"Water_stor":"Yes","Soap_and_h":"Partially","Solid_wast":"No","Priority_W":"Solid waste management, hygiene","Top_three_":"Cash/Livelihoods Camp Coordination and Camp Management WASH","Immediate_":"Medicines","Recommende":"Electricity and waste management"},"geometry":{"type":"Point","coordinates":[85.16091850000004,27.936921600000062]}},{"type":"Feature","properties":{"Site_ID":"Dhading-002","Province":"Bagmati","District":"Dhading","District_P":"NP0330","Municipali":"Gajuri","Ward_numbe":5,"Site_name":"Mohan Tar","Road_acces":"Yes","Access_con":"Road just on the side of the Trisuli and thus debris is all round the road and cleaning is on going","Travel_tim":60,"Site_type":"Planned camp","Type_of_st":"Tented","Total_hous":6,"Total_indi":29,"Site_capac":100,"Number_o_2":2,"Number_o_3":1,"Number_o_4":1,"Latrines_s":"Yes","Latrines_l":"No","Bathing_fa":"No","Drainage_a":"No","Main_drink":"Tap water sourced from seasonal spring","Main_potab":"Spring water","Is_there_1":"Yes","Days_of_wa":10,"Water_stor":"No","Soap_and_h":"Yes","Solid_wast":"Partially","Priority_W":"Bathroom, enough latrines with proper locks and lights","Top_three_":"Shelter/Non-Food Items WASH Cash/Livelihoods","Immediate_":"Light set up","Recommende":"Mental health related camp and light system set up"},"geometry":{"type":"Point","coordinates":[84.89287080000008,27.805472300000076]}},{"type":"Feature","properties":{"Site_ID":"Dhading-3","Province":"Bagmati","District":"Dhading","District_P":"NP0330","Municipali":"Gajuri","Ward_numbe":1,"Site_name":"Chalise","Road_acces":"Yes","Access_con":"No road Damage","Travel_tim":45,"Site_type":"Self-settled site","Type_of_st":"Tented","Total_hous":10,"Total_indi":37,"Site_capac":100,"Number_o_2":0,"Number_o_3":0,"Number_o_4":0,"Latrines_s":"No","Latrines_l":"No","Bathing_fa":"No","Drainage_a":"No","Main_drink":"Tap water sourced from seasonal spring","Main_potab":"Spring water","Is_there_1":"No","Days_of_wa":30,"Water_stor":"No","Soap_and_h":"Partially","Solid_wast":"No","Priority_W":"No waste management in place\nNeed of temp latrine for male female \nWater treatment and storage","Top_three_":"Cash/Livelihoods Shelter/Non-Food Items Protection","Immediate_":"Light and toilet","Recommende":"Toilet construction and safe drinking water system set up as people were saying that the dead bodies by the flood has been buried just above the water source"},"geometry":{"type":"Point","coordinates":[84.869754,27.800802800000042]}},{"type":"Feature","properties":{"Site_ID":"Dhading, Gajuri Galaudi, ward 5","Province":"Bagmati","District":"Dhading","District_P":"NP0330","Municipali":"Gajuri","Ward_numbe":5,"Site_name":"Forest Office","Road_acces":"Yes","Access_con":"Road damage,landslide risk, river crossing","Travel_tim":30,"Site_type":"Collective centre","Type_of_st":"Tented","Total_hous":40,"Total_indi":115,"Site_capac":100,"Number_o_2":2,"Number_o_3":0,"Number_o_4":0,"Latrines_s":"No","Latrines_l":"No","Bathing_fa":"No","Drainage_a":"No","Main_drink":"Mineral Bottles, Tap water sourced from seasonal spring","Main_potab":"No, local source","Is_there_1":"Yes","Days_of_wa":10,"Water_stor":"No","Soap_and_h":"No","Solid_wast":"No","Priority_W":"No proper hygienic stuff","Top_three_":"Shelter/Non-Food Items Camp Coordination and Camp Management Health","Immediate_":"Wild animals risk, water supply, toilet","Recommende":"Shelter, rehabilitation, dead body management"},"geometry":{"type":"Point","coordinates":[84.89399290000006,27.80536660000007]}},{"type":"Feature","properties":{"Site_ID":"Dhading-5","Province":"Bagmati","District":"Dhading","District_P":"NP0330","Municipali":"Gajuri","Ward_numbe":6,"Site_name":"Jarekhet","Road_acces":"Yes","Access_con":"No such damage","Travel_tim":90,"Site_type":"Planned camp","Type_of_st":"Tented","Total_hous":5,"Total_indi":19,"Site_capac":30,"Number_o_2":1,"Number_o_3":0,"Number_o_4":0,"Latrines_s":"No","Latrines_l":"No","Bathing_fa":"Partially","Drainage_a":"Partially","Main_drink":"Tap water sourced from seasonal spring","Main_potab":"Spring water","Is_there_1":"No","Days_of_wa":10,"Water_stor":"No","Soap_and_h":"Partially","Solid_wast":"Partially","Priority_W":"Waste management not in place, need of adequate and equality hygiene kit, water quality not good. Date expire soups and shampoo are found","Top_three_":"Shelter/Non-Food Items Camp Coordination and Camp Management Cash/Livelihoods","Immediate_":"Hygiene kits, Dignity kits","Recommende":"Latrine and wash kits"},"geometry":{"type":"Point","coordinates":[84.930065,27.79978790000007]}},{"type":"Feature","properties":{"Site_ID":"Dhading 1","Province":"Bagmati","District":"Dhading","District_P":"NP0330","Municipali":"Galchhi","Ward_numbe":4,"Site_name":"Dhading Multiple Campus","Road_acces":"Yes","Access_con":"No such risks","Travel_tim":90,"Site_type":"Collective centre","Type_of_st":"School","Total_hous":68,"Total_indi":123,"Site_capac":200,"Number_o_2":2,"Number_o_3":1,"Number_o_4":1,"Latrines_s":"Yes","Latrines_l":"Yes","Bathing_fa":"No","Drainage_a":"Yes","Main_drink":"Tap water sourced from seasonal spring","Main_potab":"Spring water","Is_there_1":"Yes not enough water","Days_of_wa":20,"Water_stor":"No","Soap_and_h":"Yes","Solid_wast":"No","Priority_W":"Waste management,  latrine, bath rooms, drinking water system management","Top_three_":"Camp Coordination and Camp Management WASH Cash/Livelihoods","Immediate_":"As collage needs to open soon thus temp camp needs to set up","Recommende":"Temporary camp with latrine and waste management"},"geometry":{"type":"Point","coordinates":[84.95720880000005,27.812602]}},{"type":"Feature","properties":{"Site_ID":"Dhading, Gajuri 2, Bihani Bazar","Province":"Bagmati","District":"Dhading","District_P":"NP0330","Municipali":"Gajuri","Ward_numbe":2,"Site_name":"Bihani Fuel Pump","Road_acces":"Partially","Access_con":"Road Damage, landslide risk","Travel_tim":25,"Site_type":"Collective centre","Type_of_st":"Tented","Total_hous":23,"Total_indi":92,"Site_capac":25,"Number_o_2":0,"Number_o_3":0,"Number_o_4":0,"Latrines_s":"No","Latrines_l":"Yes","Bathing_fa":"No","Drainage_a":"No","Main_drink":"Tap water sourced from seasonal spring","Main_potab":"Spring water","Is_there_1":"Partially","Days_of_wa":10,"Water_stor":"No","Soap_and_h":"Yes","Solid_wast":"Partially","Priority_W":"Not enough sanitation and hygienic kit","Top_three_":"Shelter/Non-Food Items Protection Cash/Livelihoods","Immediate_":"Resettlement","Recommende":"Resettlement, education, pay back For loan that they have taken for business"},"geometry":{"type":"Point","coordinates":[84.85026850000008,27.807663800000057]}},{"type":"Feature","properties":{"Site_ID":"Nuwkot 5","Province":"Bagmati","District":"Nuwakot","District_P":"NP0328","Municipali":"Belkotgadhi","Ward_numbe":8,"Site_name":"Janasewa School","Road_acces":"No","Access_con":"Landslide and debris has closed the road","Travel_tim":180,"Site_type":"Collective centre","Type_of_st":"School","Total_hous":11,"Total_indi":32,"Site_capac":100,"Number_o_2":6,"Number_o_3":3,"Number_o_4":3,"Latrines_s":"Yes","Latrines_l":"Partially","Bathing_fa":"Partially","Drainage_a":"Partially","Main_drink":"Tap water sourced from seasonal spring","Main_potab":"Spring water","Is_there_1":"Yes for drinking water due to not having water tank to store and safe due to not having filter system","Days_of_wa":10,"Water_stor":"No","Soap_and_h":"Partially","Solid_wast":"Partially","Priority_W":"Need to water schemes management by tank construction and filter set up","Top_three_":"Shelter/Non-Food Items Cash/Livelihoods WASH","Immediate_":"Medicine, Gas cylinder as no road connectivity, no electricity","Recommende":"Electricity line maintenance \nRoad maintenance"},"geometry":{"type":"Point","coordinates":[85.10503640000007,27.85514990000007]}}]}